INTELSAT 23 (IS-23)     
1 38867U 12057A   26185.24824108 -.00000273  00000+0  00000+0 0  9999
2 38867   0.0169  22.9185 0000490 190.6238 105.0391  1.00266443 50122
FM-6                    
1 39360U 13058A   26183.70211649 -.00000005  00000+0  00000+0 0  9992
2 39360   0.0160  40.7600 0001960 138.6453 237.7772  1.00271889 46228
INTELSAT 30 (IS-30)     
1 40271U 14062A   26183.56378632 -.00000141  00000+0  00000+0 0  9992
2 40271   0.0214  49.9436 0001444 357.0524 341.5175  1.00277454  6942
DIRECTV 14              
1 40333U 14078B   26183.42034461 -.00000115  00000+0  00000+0 0  9993
2 40333   0.0102  26.2148 0000293   2.4668 303.8682  1.00271936 42196
DIRECTV 15              
1 40663U 15026A   26183.70471650 -.00000091  00000+0  00000+0 0  9992
2 40663   0.0175  66.4844 0000483 341.1134  23.9506  1.00269040 40616
SKY MEXICO-1            
1 40664U 15026B   26185.20665727 -.00000223  00000+0  00000+0 0  9997
2 40664   0.0137  60.9669 0002491  59.3813 157.4752  1.00272767 40629
INTELSAT 34 (IS-34)     
1 40874U 15039A   26183.57149969 -.00000275  00000+0  00000+0 0  9994
2 40874   0.0108  13.9056 0000469  22.0921  34.8455  1.00269667 39786
INTELSAT 31 (IS-31)     
1 41581U 16035A   26183.56378632 -.00000141  00000+0  00000+0 0  9999
2 41581   0.0275 259.9848 0000566 356.1386 132.3882  1.00274605 36831
INTELSAT 36 (IS-36)     
1 41747U 16053A   26183.82701009 -.00000013  00000+0  00000+0 0  9998
2 41747   0.0098  12.9079 0002007 336.4355 297.7405  1.00270238 36116
INTELSAT 32E (IS-32E)   
1 41945U 17007B   26183.43143799  .00000000  00000+0  00000+0 0  9996
2 41945   0.0218  28.0694 0000954 325.1520  39.3916  1.00263397 34370
INTELSAT 35E (IS-35E)   
1 42818U 17041A   26185.19198001 -.00000226  00000+0  00000+0 0  9996
2 42818   0.0187  41.3980 0001936  57.2240 218.2019  1.00273425 32984
INTELSAT 37E (IS-37E)   
1 42950U 17059A   26185.21861733 -.00000129  00000+0  00000+0 0  9996
2 42950   0.0186  39.2814 0002794  64.2124 239.4448  1.00272747 32239
AZERSPACE 2 (IS-38)     
1 43632U 18074A   26183.80536772  .00000000  00000+0  00000+0 0  9994
2 43632   0.0228  36.6472 0001885  74.6484 144.5914  1.00276723 28607
HORIZONS-3E             
1 43633U 18074B   26183.68738308 -.00000020  00000+0  00000+0 0  9993
2 43633   0.0166 197.9110 0000602  85.7941  53.4880  1.00271230 28491
AT&T T-16               
1 44333U 19034A   26183.70480317 -.00000104  00000+0  00000+0 0  9998
2 44333   0.0156  62.5128 0000629 281.1843  89.9134  1.00271130 25780
INTELSAT 39 (IS-39)     
1 44476U 19049B   26183.86988079  .00000000  00000+0  00000+0 0  9991
2 44476   0.0212  29.7717 0000592 309.6573 316.5859  1.00268633 25287
GALAXY 30 (G-30)        
1 46114U 20056C   26185.19743795  .00000000  00000+0  00000+0 0  9994
2 46114   0.0217  36.3001 0002019  70.3779 121.6188  1.00271608 21461
GALAXY 33 (G-33)        
1 54026U 22128A   26185.19587795  .00000091  00000+0  00000+0 0  9993
2 54026   0.0158  52.4339 0002005  46.4037 120.8896  1.00271262 13919
GALAXY 34 (G-34)        
1 54027U 22128B   26183.85030604  .00000070  00000+0  00000+0 0  9994
2 54027   0.0130  31.8533 0001955  68.7137 357.4298  1.00268570 14078
GALAXY 31 (G-31)        
1 54243U 22153A   26185.19821795  .00000025  00000+0  00000+0 0  9990
2 54243   0.0192  89.3122 0001477  13.3982 129.8548  1.00272292  7304
GALAXY 32 (G-32)        
1 54244U 22153B   26183.56456632 -.00000164  00000+0  00000+0 0  9999
2 54244   0.0105  15.3279 0001988  35.2758 342.2488  1.00272409 13291
GALAXY 35 (G-35)        
1 54741U 22170A   26185.20376464 -.00000150  00000+0  00000+0 0  9992
2 54741   0.0135  81.9105 0002224  22.2962 158.2627  1.00272510 13068
GALAXY 36 (G-36)        
1 54742U 22170B   26185.13332458 -.00000173  00000+0  00000+0 0  9995
2 54742   0.0052 135.7055 0002824 319.0440 146.3986  1.00272006 12945
GALAXY 37 (G-37)        
1 57493U 23112A   26185.19709128  .00000000  00000+0  00000+0 0  9994
2 57493   0.0198  28.1175 0001949  83.2785 114.7693  1.00270276 10713
